[{"OBJECT_NAME":"STARLINK-35376","OBJECT_ID":"2025-232P","EPOCH":"2026-03-09T12:10:11.609184","MEAN_MOTION":15.30193815,"ECCENTRICITY":0.00013059,"INCLINATION":53.1587,"RA_OF_ASC_NODE":105.0347,"ARG_OF_PERICENTER":91.242,"MEAN_ANOMALY":268.873,"EPHEMERIS_TYPE":0,"CLASSIFICATION_TYPE":"U","NORAD_CAT_ID":66018,"ELEMENT_SET_NO":999,"REV_AT_EPOCH":2340,"BSTAR":0.0010102205,"MEAN_MOTION_DOT":0.00029674,"MEAN_MOTION_DDOT":0},{"OBJECT_NAME":"FENGYUN 1C DEB","OBJECT_ID":"1999-025BNP","EPOCH":"2026-03-08T20:32:05.282880","MEAN_MOTION":15.24866573,"ECCENTRICITY":0.00982022,"INCLINATION":98.3915,"RA_OF_ASC_NODE":217.6412,"ARG_OF_PERICENTER":158.7529,"MEAN_ANOMALY":201.7829,"EPHEMERIS_TYPE":0,"CLASSIFICATION_TYPE":"U","NORAD_CAT_ID":31281,"ELEMENT_SET_NO":999,"REV_AT_EPOCH":1008,"BSTAR":0.0025465872,"MEAN_MOTION_DOT":0.00073171,"MEAN_MOTION_DDOT":0}]
